[{"OBJECT_NAME":"STARLINK-30702","OBJECT_ID":"2023-148W","EPOCH":"2026-03-09T05:48:17.758944","MEAN_MOTION":15.30191301,"ECCENTRICITY":9.511e-5,"INCLINATION":53.1613,"RA_OF_ASC_NODE":16.2915,"ARG_OF_PERICENTER":79.3427,"MEAN_ANOMALY":280.7681,"EPHEMERIS_TYPE":0,"CLASSIFICATION_TYPE":"U","NORAD_CAT_ID":57955,"ELEMENT_SET_NO":999,"REV_AT_EPOCH":13849,"BSTAR":-1.6505985e-5,"MEAN_MOTION_DOT":-8.48e-6,"MEAN_MOTION_DDOT":0},{"OBJECT_NAME":"YAM-7","OBJECT_ID":"2024-149AN","EPOCH":"2026-03-09T17:13:55.117920","MEAN_MOTION":15.30304554,"ECCENTRICITY":0.00019733,"INCLINATION":97.3828,"RA_OF_ASC_NODE":149.4631,"ARG_OF_PERICENTER":296.5121,"MEAN_ANOMALY":63.5918,"EPHEMERIS_TYPE":0,"CLASSIFICATION_TYPE":"U","NORAD_CAT_ID":60504,"ELEMENT_SET_NO":999,"REV_AT_EPOCH":8683,"BSTAR":0.00030984439,"MEAN_MOTION_DOT":9.009e-5,"MEAN_MOTION_DDOT":0}]
